STARLINK-2325
1 27979C 21024C   21325.09134990  .00001439  00000-0  10293-3 0  3251
2 27979  53.0507 116.7594 0002392  91.0004 185.8809 15.03964955    18
